[{"OBJECT_NAME":"STARLINK-31390","OBJECT_ID":"2024-027G","EPOCH":"2026-03-09T22:37:34.012128","MEAN_MOTION":15.30190577,"ECCENTRICITY":0.00011396,"INCLINATION":53.1605,"RA_OF_ASC_NODE":308.6904,"ARG_OF_PERICENTER":68.1697,"MEAN_ANOMALY":291.9425,"EPHEMERIS_TYPE":0,"CLASSIFICATION_TYPE":"U","NORAD_CAT_ID":58937,"ELEMENT_SET_NO":999,"REV_AT_EPOCH":11736,"BSTAR":4.5784865e-5,"MEAN_MOTION_DOT":9.97e-6,"MEAN_MOTION_DDOT":0},{"OBJECT_NAME":"CZ-6A DEB","OBJECT_ID":"2024-140ZM","EPOCH":"2026-03-09T08:08:19.885920","MEAN_MOTION":14.97554426,"ECCENTRICITY":0.01813088,"INCLINATION":90.2734,"RA_OF_ASC_NODE":12.4689,"ARG_OF_PERICENTER":116.477,"MEAN_ANOMALY":245.5188,"EPHEMERIS_TYPE":0,"CLASSIFICATION_TYPE":"U","NORAD_CAT_ID":61455,"ELEMENT_SET_NO":999,"REV_AT_EPOCH":8308,"BSTAR":0.00078895456,"MEAN_MOTION_DOT":0.00012969,"MEAN_MOTION_DDOT":0}]
